[{"OBJECT_NAME":"STARLINK-34995","OBJECT_ID":"2025-184N","EPOCH":"2026-03-09T17:16:54.649344","MEAN_MOTION":15.05656869,"ECCENTRICITY":0.00011576,"INCLINATION":97.6017,"RA_OF_ASC_NODE":122.6631,"ARG_OF_PERICENTER":146.3956,"MEAN_ANOMALY":213.7345,"EPHEMERIS_TYPE":0,"CLASSIFICATION_TYPE":"U","NORAD_CAT_ID":65285,"ELEMENT_SET_NO":999,"REV_AT_EPOCH":3130,"BSTAR":0.00017779563,"MEAN_MOTION_DOT":2.506e-5,"MEAN_MOTION_DDOT":0},{"OBJECT_NAME":"UNKNOWN","OBJECT_ID":"","EPOCH":"2026-03-09T02:53:57.432768","MEAN_MOTION":15.04852502,"ECCENTRICITY":0.0007482,"INCLINATION":86.6587,"RA_OF_ASC_NODE":118.2618,"ARG_OF_PERICENTER":183.1315,"MEAN_ANOMALY":176.9875,"EPHEMERIS_TYPE":0,"CLASSIFICATION_TYPE":"U","NORAD_CAT_ID":82402,"ELEMENT_SET_NO":999,"REV_AT_EPOCH":46745,"BSTAR":0.00051144,"MEAN_MOTION_DOT":7.26e-5,"MEAN_MOTION_DDOT":0}]
